[{"OBJECT_NAME":"STARLINK-5633","OBJECT_ID":"2023-014V","EPOCH":"2026-03-09T11:19:05.752704","MEAN_MOTION":14.98332032,"ECCENTRICITY":0.00035241,"INCLINATION":69.9989,"RA_OF_ASC_NODE":84.8422,"ARG_OF_PERICENTER":267.6974,"MEAN_ANOMALY":92.3782,"EPHEMERIS_TYPE":0,"CLASSIFICATION_TYPE":"U","NORAD_CAT_ID":55410,"ELEMENT_SET_NO":999,"REV_AT_EPOCH":17153,"BSTAR":-3.074239e-6,"MEAN_MOTION_DOT":-1.3e-6,"MEAN_MOTION_DDOT":0},{"OBJECT_NAME":"OV1-10 R\/B","OBJECT_ID":"1966-111C","EPOCH":"2026-03-09T17:10:30.494208","MEAN_MOTION":14.85448079,"ECCENTRICITY":0.00582808,"INCLINATION":93.4003,"RA_OF_ASC_NODE":162.682,"ARG_OF_PERICENTER":65.7943,"MEAN_ANOMALY":294.9357,"EPHEMERIS_TYPE":0,"CLASSIFICATION_TYPE":"U","NORAD_CAT_ID":2621,"ELEMENT_SET_NO":999,"REV_AT_EPOCH":15959,"BSTAR":0.00014045213,"MEAN_MOTION_DOT":1.241e-5,"MEAN_MOTION_DDOT":0}]
